OSCAR 7 (AO-7)          
1 07530U 74089B   21281.88607815 -.00000045  00000-0  15688-5 0  9993
2 07530 101.8693 256.3232 0012181 162.7733 252.1557 12.53650655145948
PHASE 3B (AO-10)        
1 14129U 83058B   21280.70740087 -.00000017  00000-0  00000-0 0  9996
2 14129  26.2960 136.7084 5981581  14.2404 357.3389  2.05868696260203
UOSAT 2 (UO-11)         
1 14781U 84021B   21281.92635127  .00000229  00000-0  34020-4 0  9991
2 14781  97.6000 276.2190 0009912  71.8592 288.3701 14.83337315  2756
LUSAT (LO-19)           
1 20442U 90005G   21281.88091273  .00000016  00000-0  22505-4 0  9993
2 20442  98.7548 238.4470 0011590 182.4473 177.6655 14.33000189657079
EYESAT A (AO-27)        
1 22825U 93061C   21282.06946475  .00000004  00000-0  19408-4 0  9994
2 22825  98.9138 302.4516 0009415  67.1755 293.0420 14.30126696462493
ITAMSAT (IO-26)         
1 22826U 93061D   21281.80307082  .00000006  00000-0  20004-4 0  9997
2 22826  98.9081 302.0771 0009842  56.1430 304.0687 14.30467134462686
RADIO ROSTO (RS-15)     
1 23439U 94085A   21281.96035228 -.00000037  00000-0  15882-3 0  9994
2 23439  64.8177 192.3779 0164456 315.6679  43.1173 11.27570422103135
JAS-2 (FO-29)           
1 24278U 96046B   21282.17393166 -.00000012  00000-0  25161-4 0  9992
2 24278  98.5545 335.0227 0349760 214.8485 142.9299 13.53106729241879
TECHSAT 1B (GO-32)      
1 25397U 98043D   21282.11654035  .00000007  00000-0  22732-4 0  9997
2 25397  98.7812 227.4057 0002315 101.8728 258.2710 14.23717494207880
ISS (ZARYA)             
1 25544U 98067A   21281.73004796  .00003128  00000-0  65029-4 0  9990
2 25544  51.6444 141.3023 0004210  71.7185  11.5978 15.48952913306193
PCSAT (NO-44)           
1 26931U 01043C   21281.92169596  .00000007  00000-0  34474-4 0  9993
2 26931  67.0530 347.5977 0005539 271.6196  88.4271 14.30635785 45427
SAUDISAT 1C (SO-50)     
1 27607U 02058C   21281.80611742  .00000131  00000-0  39130-4 0  9995
2 27607  64.5568 351.7052 0054778 348.0745  11.9056 14.75799259 11443
CUTE-1 (CO-55)          
1 27844U 03031E   21282.01661855  .00000088  00000-0  59332-4 0  9991
2 27844  98.6821 288.5140 0010940 108.1923 252.0446 14.22338205948168
CUBESAT XI-IV (CO-57)   
1 27848U 03031J   21281.97333197  .00000059  00000-0  46349-4 0  9996
2 27848  98.6875 289.0282 0010716 120.5918 239.6318 14.21911467947970
MOZHAYETS 4 (RS-22)     
1 27939U 03042A   21282.08236629  .00000221  00000-0  48266-4 0  9995
2 27939  98.1575  58.4895 0011621 282.6035  77.3849 14.67033678964184
CUBESAT XI-V            
1 28895U 05043F   21281.88600753  .00000326  00000-0  71225-4 0  9997
2 28895  98.0749  52.7489 0016157 209.2554 150.7745 14.63973522850603
FALCONSAT-3             
1 30776U 07006E   21281.84256093  .00008617  00000-0  19696-3 0  9993
2 30776  35.4335  90.8467 0002632 247.2072 112.8379 15.42113833810617
CUTE-1.7+APD II (CO-65) 
1 32785U 08021C   21281.71723057  .00000659  00000-0  75901-4 0  9998
2 32785  97.6244 256.2425 0012783 355.2414   4.8680 14.88829632729027
DELFI-C3 (DO-64)        
1 32789U 08021G   21282.05348061  .00003523  00000-0  22292-3 0  9995
2 32789  97.3670 313.0289 0013192 110.0763 250.1888 15.09544071734061
SEEDS II (CO-66)        
1 32791U 08021J   21282.21246794  .00000967  00000-0  10174-3 0  9991
2 32791  97.5831 262.5131 0011965 312.8058  47.2155 14.91562962729812
YUBILEINY (RS-30)       
1 32953U 08025A   21282.11146264  .00000021  00000-0  80971-4 0  9999
2 32953  82.5072 340.2523 0020677  90.4913 269.8538 12.43104868607107
KKS-1 (KISEKI)          
1 33499U 09002H   21281.91083573  .00000237  00000-0  42551-4 0  9992
2 33499  98.2500 154.3049 0010043  44.6696 315.5319 14.75709584683142
SWISSCUBE               
1 35932U 09051B   21281.49560583  .00000231  00000-0  62780-4 0  9994
2 35932  98.5939 125.0351 0008665  98.8556 261.3623 14.56589473639452
BEESAT-1                
1 35933U 09051C   21282.07526390  .00000186  00000-0  52740-4 0  9992
2 35933  98.5893 127.4056 0006798 107.6777 252.5162 14.56640696639656
ITUPSAT1                
1 35935U 09051E   21281.80358374  .00000169  00000-0  49683-4 0  9992
2 35935  98.5995 127.2404 0009097 111.1338 249.0832 14.55768456639260
XIWANG-1 (HOPE-1)       
1 36122U 09072B   21281.92725060 -.00000061  00000-0 -48672-4 0  9997
2 36122 100.1467 257.9511 0007206 195.7421 164.3470 13.16362987567828
JUGNU                   
1 37839U 11058B   21282.10713675  .00000364  00000-0  52161-4 0  9992
2 37839  19.9610 259.9132 0018677 265.3029 167.9608 14.12728043516668
SRMSAT                  
1 37841U 11058D   21281.82773940  .00000323  00000-0  32265-4 0  9992
2 37841  19.9732 335.8344 0012042  98.8554  57.6083 14.10706258515895
M-CUBED & EXP-1 PRIME   
1 37855U 11061F   21281.88209163  .00003989  00000-0  19463-3 0  9993
2 37855 101.7217 264.2072 0165299  93.1241 268.8899 15.08264191543272
STRAND-1                
1 39090U 13009E   21281.83759747  .00000043  00000-0  30126-4 0  9991
2 39090  98.4194 121.3254 0008217 306.0618  53.9806 14.35188469451301
SOMP                    
1 39134U 13015E   21281.92086442  .00004101  00000-0  17999-3 0  9993
2 39134  64.8630 163.3029 0019688 314.3234  45.6280 15.23275782468493
BEESAT-3                
1 39135U 13015F   21281.96746901  .00003855  00000-0  18713-3 0  9991
2 39135  64.8677 194.2455 0017702 332.3877  27.6308 15.19916222467855
BEESAT-2                
1 39136U 13015G   21282.14637874  .00003266  00000-0  16315-3 0  9993
2 39136  64.8766 200.5421 0017649 241.1262 118.8095 15.19230261468189
ZACUBE-1 (TSHEPISOSAT)  
1 39417U 13066B   21281.91342585  .00000516  00000-0  70093-4 0  9996
2 39417  97.6053 260.4348 0059244 147.8999 212.5844 14.81616173425874
GOMX-1                  
1 39430U 13066Q   21282.18941265  .00000365  00000-0  73929-4 0  9994
2 39430  97.8100 198.7175 0151497 116.3550 245.3294 14.59687207419633
CUBEBUG-2 (LO-74)       
1 39440U 13066AA  21281.91374216  .00000471  00000-0  71819-4 0  9995
2 39440  97.6901 245.7398 0078500 226.7937 132.6699 14.76341397423165
FUNCUBE-1 (AO-73)       
1 39444U 13066AE  21281.89491237  .00000612  00000-0  80197-4 0  9995
2 39444  97.5952 262.7996 0058501 137.7951 222.7788 14.82543494424242
UWE-3                   
1 39446U 13066AG  21281.89477169  .00000451  00000-0  65701-4 0  9990
2 39446  97.6505 252.5312 0069204 188.2297 171.7786 14.78880399423270
SPROUT                  
1 39770U 14029E   21282.14567427  .00002008  00000-0  22081-3 0  9999
2 39770  97.9239  33.3925 0008490 186.4498 173.6651 14.88720596400253
UNISAT-6                
1 40012U 14033C   21281.83945526  .00000418  00000-0  68846-4 0  9993
2 40012  97.6689 118.2701 0056620 253.2628 106.2364 14.74392798392900
DUCHIFAT-1              
1 40021U 14033M   21281.78491534  .00001316  00000-0  13707-3 0  9995
2 40021  97.9802 223.2300 0013344 145.0320 215.1777 14.91519312397179
QB50P1                  
1 40025U 14033R   21281.81531676  .00000815  00000-0  91362-4 0  9992
2 40025  97.9361 212.8202 0012674 159.0552 201.1187 14.89568628396298
NUDT-PHONESAT           
1 40900U 15049B   21282.00937777  .00006730  00000-0  25240-3 0  9999
2 40900  97.4179 295.4374 0013316  97.0666 319.6304 15.27487299336152
ZDPS 2A                 
1 40901U 15049C   21282.09692050  .00003263  00000-0  15413-3 0  9990
2 40901  97.4639 288.0254 0013964 139.3762 292.4797 15.20054279335238
ZDPS 2B                 
1 40902U 15049D   21282.07318606  .00003405  00000-0  16046-3 0  9992
2 40902  97.4688 285.4130 0013952 136.6652 294.8221 15.20101108335201
XW-2A                   
1 40903U 15049E   21282.16914972  .00006620  00000-0  13576-3 0  9998
2 40903  97.2236 336.2931 0010762 326.7005  97.2918 15.46329928340364
KAITUO 1A               
1 40904U 15049F   21282.12048407  .00001347  00000-0  72619-4 0  9991
2 40904  97.4907 282.4793 0014782 157.2241 289.1987 15.16410876334760
2015-049G               
1 40905U 15049G   21282.11092876  .00001257  00000-0  70371-4 0  9993
2 40905  97.5060 279.5752 0016007 158.3714 266.9369 15.15186858334545
XW-2C                   
1 40906U 15049H   21282.08673603  .00001594  00000-0  83819-4 0  9998
2 40906  97.4899 283.0631 0015242 147.6126 286.2029 15.17028537334795
XW-2D                   
1 40907U 15049J   21282.12008008  .00002088  00000-0  10763-3 0  9991
2 40907  97.4892 282.9313 0014798 143.5825 281.7422 15.17390269334836
LILACSAT-2              
1 40908U 15049K   21282.05221940  .00001191  00000-0  67922-4 0  9990
2 40908  97.5097 280.5409 0016080 161.2341 270.9978 15.14611140334423
XW-2F                   
1 40910U 15049M   21282.12293402  .00003047  00000-0  14630-3 0  9992
2 40910  97.4747 286.1751 0015382 129.8757 299.1838 15.19516115334984
XW-2B                   
1 40911U 15049N   21282.12925179  .00002092  00000-0  10810-3 0  9991
2 40911  97.4887 283.6060 0014569 144.4899 280.9510 15.17303111334726
KAITUO 1B               
1 40912U 15049P   21282.12654829  .00003434  00000-0  15249-3 0  9995
2 40912  97.4451 290.5640 0015722 102.9810 329.6314 15.22119048335486
TIANWANG 1A (TW-1A)     
1 40928U 15051D   21282.14708586  .00010914  00000-0  21417-3 0  9992
2 40928  97.0700 304.3838 0007699 225.4648 208.3373 15.47468702339262
LAPAN-A2                
1 40931U 15052B   21282.14529504  .00000787  00000-0  20445-4 0  9996
2 40931   5.9942 161.5725 0013626 216.6395 143.2786 14.76693899326133
E-ST@R-II               
1 41459U 16025D   21282.18351150  .00003549  00000-0  17192-3 0  9990
2 41459  98.1579  65.3231 0158874  39.6072 321.6643 15.08817469299569
AAUSAT 4                
1 41460U 16025E   21281.96983394  .00004481  00000-0  20490-3 0  9999
2 41460  98.1566  69.5684 0144633  22.2227 338.5179 15.12218305299866
NUSAT-1 (FRESCO)        
1 41557U 16033B   21282.14199571  .00004374  00000-0  15257-3 0  9998
2 41557  97.3941  15.4857 0012574 184.7133 220.1432 15.30081699298918
